ONEWEB-0092             
1 45437U 20020P   25333.80780521 -.00000455  00000+0 -13186-2 0  9990
2 45437  87.8867  60.7649 0001471 107.2320 252.8969 13.11414462276653
ONEWEB-0085             
1 45438U 20020Q   25333.53909109  .00000495  00000+0  13610-2 0  9990
2 45438  87.8861  60.8277 0001696 104.4029 255.7288 13.11418913276505
ONEWEB-0096             
1 45439U 20020R   25333.54078905  .00000517  00000+0  14229-2 0  9995
2 45439  87.8873  60.8064 0001878 106.5639 253.5696 13.11417468276496
ONEWEB-0037             
1 45440U 20020S   25333.75016632 -.00000256  00000+0 -75929-3 0  9996
2 45440  87.8882  60.7336 0001596 104.8371 255.2934 13.11418834276559
ONEWEB-0042             
1 45441U 20020T   25333.68306231  .00000109  00000+0  27162-3 0  9997
2 45441  87.8871  60.7780 0001644 108.3582 251.7725 13.11419478276518
ONEWEB-0098             
1 45442U 20020U   25333.67894831 -.00000327  00000+0 -95888-3 0  9999
2 45442  87.8870  60.7906 0001717 101.1480 258.9841 13.11418304276499
ONEWEB-0055             
1 45443U 20020V   25333.81458914 -.00000487  00000+0 -14092-2 0  9998
2 45443  87.8872  60.7646 0001705 101.7515 258.3804 13.11416866276488
ONEWEB-0093             
1 45444U 20020W   25333.71386322  .00000101  00000+0  24991-3 0  9992
2 45444  87.8873  60.7714 0001906 117.2020 242.9302 13.11414477276536
ONEWEB-0029             
1 45445U 20020X   25333.80611054 -.00000504  00000+0 -14569-2 0  9994
2 45445  87.8873  60.7659 0001828 106.7561 253.3768 13.11413936276521
ONEWEB-0068             
1 45446U 20020Y   25333.78988948  .00000162  00000+0  42062-3 0  9999
2 45446  87.8873  60.7579 0001847 107.4597 252.6733 13.11413742276463
ONEWEB-0046             
1 45447U 20020Z   25333.62895034  .00000402  00000+0  10990-2 0  9997
2 45447  87.8873  60.7977 0001677 113.0025 247.1280 13.11415636276455
ONEWEB-0063             
1 45448U 20020AA  25333.81034071 -.00000486  00000+0 -14073-2 0  9995
2 45448  87.8871  60.7596 0001529 110.4014 249.7278 13.11413849276567
ONEWEB-0019             
1 45449U 20020AB  25333.63099983  .00000427  00000+0  11669-2 0  9990
2 45449  87.8864  60.8061 0002078 100.7809 259.3553 13.11598462276380
ONEWEB-0094             
1 45450U 20020AC  25333.71862705 -.00000168  00000+0 -46461-3 0  9994
2 45450  87.9134  45.4983 0001886 100.2697 259.8648 13.17650775280041
ONEWEB-0087             
1 45451U 20020AD  25333.74409106 -.00000339  00000+0 -99323-3 0  9995
2 45451  87.8885  60.7298 0001952 108.5220 251.6120 13.11417412276447
ONEWEB-0082             
1 45452U 20020AE  25333.74083613 -.00000547  00000+0 -15789-2 0  9991
2 45452  87.8883  60.7556 0001880 106.9509 253.1825 13.11417728276534
ONEWEB-0050             
1 45453U 20020AF  25333.74095941  .00003977  00000+0  41670-3 0  9996
2 45453  88.9224 260.4170 0003385  23.5219 336.6164 14.89398511310683
