[{"OBJECT_NAME":"ONEWEB-0092","OBJECT_ID":"2020-020P","EPOCH":"2025-11-29T19:23:14.370144","MEAN_MOTION":13.11414462,"ECCENTRICITY":0.0001471,"INCLINATION":87.8867,"RA_OF_ASC_NODE":60.7649,"ARG_OF_PERICENTER":107.232,"MEAN_ANOMALY":252.8969,"EPHEMERIS_TYPE":0,"CLASSIFICATION_TYPE":"U","NORAD_CAT_ID":45437,"ELEMENT_SET_NO":999,"REV_AT_EPOCH":27665,"BSTAR":-0.0013186,"MEAN_MOTION_DOT":-4.55e-6,"MEAN_MOTION_DDOT":0},{"OBJECT_NAME":"ONEWEB-0085","OBJECT_ID":"2020-020Q","EPOCH":"2025-11-29T12:56:17.470176","MEAN_MOTION":13.11418913,"ECCENTRICITY":0.0001696,"INCLINATION":87.8861,"RA_OF_ASC_NODE":60.8277,"ARG_OF_PERICENTER":104.4029,"MEAN_ANOMALY":255.7288,"EPHEMERIS_TYPE":0,"CLASSIFICATION_TYPE":"U","NORAD_CAT_ID":45438,"ELEMENT_SET_NO":999,"REV_AT_EPOCH":27650,"BSTAR":0.001361,"MEAN_MOTION_DOT":4.95e-6,"MEAN_MOTION_DDOT":0},{"OBJECT_NAME":"ONEWEB-0096","OBJECT_ID":"2020-020R","EPOCH":"2025-11-29T12:58:44.173920","MEAN_MOTION":13.11417468,"ECCENTRICITY":0.0001878,"INCLINATION":87.8873,"RA_OF_ASC_NODE":60.8064,"ARG_OF_PERICENTER":106.5639,"MEAN_ANOMALY":253.5696,"EPHEMERIS_TYPE":0,"CLASSIFICATION_TYPE":"U","NORAD_CAT_ID":45439,"ELEMENT_SET_NO":999,"REV_AT_EPOCH":27649,"BSTAR":0.0014229,"MEAN_MOTION_DOT":5.17e-6,"MEAN_MOTION_DDOT":0},{"OBJECT_NAME":"ONEWEB-0037","OBJECT_ID":"2020-020S","EPOCH":"2025-11-29T18:00:14.370048","MEAN_MOTION":13.11418834,"ECCENTRICITY":0.0001596,"INCLINATION":87.8882,"RA_OF_ASC_NODE":60.7336,"ARG_OF_PERICENTER":104.8371,"MEAN_ANOMALY":255.2934,"EPHEMERIS_TYPE":0,"CLASSIFICATION_TYPE":"U","NORAD_CAT_ID":45440,"ELEMENT_SET_NO":999,"REV_AT_EPOCH":27655,"BSTAR":-0.00075929,"MEAN_MOTION_DOT":-2.56e-6,"MEAN_MOTION_DDOT":0},{"OBJECT_NAME":"ONEWEB-0042","OBJECT_ID":"2020-020T","EPOCH":"2025-11-29T16:23:36.583584","MEAN_MOTION":13.11419478,"ECCENTRICITY":0.0001644,"INCLINATION":87.8871,"RA_OF_ASC_NODE":60.778,"ARG_OF_PERICENTER":108.3582,"MEAN_ANOMALY":251.7725,"EPHEMERIS_TYPE":0,"CLASSIFICATION_TYPE":"U","NORAD_CAT_ID":45441,"ELEMENT_SET_NO":999,"REV_AT_EPOCH":27651,"BSTAR":0.00027162,"MEAN_MOTION_DOT":1.09e-6,"MEAN_MOTION_DDOT":0},{"OBJECT_NAME":"ONEWEB-0098","OBJECT_ID":"2020-020U","EPOCH":"2025-11-29T16:17:41.133984","MEAN_MOTION":13.11418304,"ECCENTRICITY":0.0001717,"INCLINATION":87.887,"RA_OF_ASC_NODE":60.7906,"ARG_OF_PERICENTER":101.148,"MEAN_ANOMALY":258.9841,"EPHEMERIS_TYPE":0,"CLASSIFICATION_TYPE":"U","NORAD_CAT_ID":45442,"ELEMENT_SET_NO":999,"REV_AT_EPOCH":27649,"BSTAR":-0.00095888,"MEAN_MOTION_DOT":-3.27e-6,"MEAN_MOTION_DDOT":0},{"OBJECT_NAME":"ONEWEB-0055","OBJECT_ID":"2020-020V","EPOCH":"2025-11-29T19:33:00.501696","MEAN_MOTION":13.11416866,"ECCENTRICITY":0.0001705,"INCLINATION":87.8872,"RA_OF_ASC_NODE":60.7646,"ARG_OF_PERICENTER":101.7515,"MEAN_ANOMALY":258.3804,"EPHEMERIS_TYPE":0,"CLASSIFICATION_TYPE":"U","NORAD_CAT_ID":45443,"ELEMENT_SET_NO":999,"REV_AT_EPOCH":27648,"BSTAR":-0.0014092,"MEAN_MOTION_DOT":-4.87e-6,"MEAN_MOTION_DDOT":0},{"OBJECT_NAME":"ONEWEB-0093","OBJECT_ID":"2020-020W","EPOCH":"2025-11-29T17:07:57.782208","MEAN_MOTION":13.11414477,"ECCENTRICITY":0.0001906,"INCLINATION":87.8873,"RA_OF_ASC_NODE":60.7714,"ARG_OF_PERICENTER":117.202,"MEAN_ANOMALY":242.9302,"EPHEMERIS_TYPE":0,"CLASSIFICATION_TYPE":"U","NORAD_CAT_ID":45444,"ELEMENT_SET_NO":999,"REV_AT_EPOCH":27653,"BSTAR":0.00024991,"MEAN_MOTION_DOT":1.01e-6,"MEAN_MOTION_DDOT":0},{"OBJECT_NAME":"ONEWEB-0029","OBJECT_ID":"2020-020X","EPOCH":"2025-11-29T19:20:47.950656","MEAN_MOTION":13.11413936,"ECCENTRICITY":0.0001828,"INCLINATION":87.8873,"RA_OF_ASC_NODE":60.7659,"ARG_OF_PERICENTER":106.7561,"MEAN_ANOMALY":253.3768,"EPHEMERIS_TYPE":0,"CLASSIFICATION_TYPE":"U","NORAD_CAT_ID":45445,"ELEMENT_SET_NO":999,"REV_AT_EPOCH":27652,"BSTAR":-0.0014569,"MEAN_MOTION_DOT":-5.04e-6,"MEAN_MOTION_DDOT":0},{"OBJECT_NAME":"ONEWEB-0068","OBJECT_ID":"2020-020Y","EPOCH":"2025-11-29T18:57:26.451072","MEAN_MOTION":13.11413742,"ECCENTRICITY":0.0001847,"INCLINATION":87.8873,"RA_OF_ASC_NODE":60.7579,"ARG_OF_PERICENTER":107.4597,"MEAN_ANOMALY":252.6733,"EPHEMERIS_TYPE":0,"CLASSIFICATION_TYPE":"U","NORAD_CAT_ID":45446,"ELEMENT_SET_NO":999,"REV_AT_EPOCH":27646,"BSTAR":0.00042062,"MEAN_MOTION_DOT":1.62e-6,"MEAN_MOTION_DDOT":0},{"OBJECT_NAME":"ONEWEB-0046","OBJECT_ID":"2020-020Z","EPOCH":"2025-11-29T15:05:41.309376","MEAN_MOTION":13.11415636,"ECCENTRICITY":0.0001677,"INCLINATION":87.8873,"RA_OF_ASC_NODE":60.7977,"ARG_OF_PERICENTER":113.0025,"MEAN_ANOMALY":247.128,"EPHEMERIS_TYPE":0,"CLASSIFICATION_TYPE":"U","NORAD_CAT_ID":45447,"ELEMENT_SET_NO":999,"REV_AT_EPOCH":27645,"BSTAR":0.001099,"MEAN_MOTION_DOT":4.02e-6,"MEAN_MOTION_DDOT":0},{"OBJECT_NAME":"ONEWEB-0063","OBJECT_ID":"2020-020AA","EPOCH":"2025-11-29T19:26:53.437344","MEAN_MOTION":13.11413849,"ECCENTRICITY":0.0001529,"INCLINATION":87.8871,"RA_OF_ASC_NODE":60.7596,"ARG_OF_PERICENTER":110.4014,"MEAN_ANOMALY":249.7278,"EPHEMERIS_TYPE":0,"CLASSIFICATION_TYPE":"U","NORAD_CAT_ID":45448,"ELEMENT_SET_NO":999,"REV_AT_EPOCH":27656,"BSTAR":-0.0014073,"MEAN_MOTION_DOT":-4.86e-6,"MEAN_MOTION_DDOT":0},{"OBJECT_NAME":"ONEWEB-0019","OBJECT_ID":"2020-020AB","EPOCH":"2025-11-29T15:08:38.385312","MEAN_MOTION":13.11598462,"ECCENTRICITY":0.0002078,"INCLINATION":87.8864,"RA_OF_ASC_NODE":60.8061,"ARG_OF_PERICENTER":100.7809,"MEAN_ANOMALY":259.3553,"EPHEMERIS_TYPE":0,"CLASSIFICATION_TYPE":"U","NORAD_CAT_ID":45449,"ELEMENT_SET_NO":999,"REV_AT_EPOCH":27638,"BSTAR":0.0011669,"MEAN_MOTION_DOT":4.27e-6,"MEAN_MOTION_DDOT":0},{"OBJECT_NAME":"ONEWEB-0094","OBJECT_ID":"2020-020AC","EPOCH":"2025-11-29T17:14:49.377120","MEAN_MOTION":13.17650775,"ECCENTRICITY":0.0001886,"INCLINATION":87.9134,"RA_OF_ASC_NODE":45.4983,"ARG_OF_PERICENTER":100.2697,"MEAN_ANOMALY":259.8648,"EPHEMERIS_TYPE":0,"CLASSIFICATION_TYPE":"U","NORAD_CAT_ID":45450,"ELEMENT_SET_NO":999,"REV_AT_EPOCH":28004,"BSTAR":-0.00046461,"MEAN_MOTION_DOT":-1.68e-6,"MEAN_MOTION_DDOT":0},{"OBJECT_NAME":"ONEWEB-0087","OBJECT_ID":"2020-020AD","EPOCH":"2025-11-29T17:51:29.467584","MEAN_MOTION":13.11417412,"ECCENTRICITY":0.0001952,"INCLINATION":87.8885,"RA_OF_ASC_NODE":60.7298,"ARG_OF_PERICENTER":108.522,"MEAN_ANOMALY":251.612,"EPHEMERIS_TYPE":0,"CLASSIFICATION_TYPE":"U","NORAD_CAT_ID":45451,"ELEMENT_SET_NO":999,"REV_AT_EPOCH":27644,"BSTAR":-0.00099323,"MEAN_MOTION_DOT":-3.39e-6,"MEAN_MOTION_DDOT":0},{"OBJECT_NAME":"ONEWEB-0082","OBJECT_ID":"2020-020AE","EPOCH":"2025-11-29T17:46:48.241632","MEAN_MOTION":13.11417728,"ECCENTRICITY":0.000188,"INCLINATION":87.8883,"RA_OF_ASC_NODE":60.7556,"ARG_OF_PERICENTER":106.9509,"MEAN_ANOMALY":253.1825,"EPHEMERIS_TYPE":0,"CLASSIFICATION_TYPE":"U","NORAD_CAT_ID":45452,"ELEMENT_SET_NO":999,"REV_AT_EPOCH":27653,"BSTAR":-0.0015789,"MEAN_MOTION_DOT":-5.47e-6,"MEAN_MOTION_DDOT":0},{"OBJECT_NAME":"ONEWEB-0050","OBJECT_ID":"2020-020AF","EPOCH":"2025-11-29T17:46:58.893024","MEAN_MOTION":14.89398511,"ECCENTRICITY":0.0003385,"INCLINATION":88.9224,"RA_OF_ASC_NODE":260.417,"ARG_OF_PERICENTER":23.5219,"MEAN_ANOMALY":336.6164,"EPHEMERIS_TYPE":0,"CLASSIFICATION_TYPE":"U","NORAD_CAT_ID":45453,"ELEMENT_SET_NO":999,"REV_AT_EPOCH":31068,"BSTAR":0.0004167,"MEAN_MOTION_DOT":3.977e-5,"MEAN_MOTION_DDOT":0}]
